STARLINK-36277          
1 68305U 26057M   26101.29309076  .00218226  00000+0  14197-2 0  9992
2 68305  97.2843 225.3024 0003283  58.2856 301.8729 15.75304175  3411
STARLINK-36307          
1 68306U 26057N   26101.08860506  .00374024  00000+0  18617-2 0  9990
2 68306  97.2848 225.1231 0001758  71.4115 288.7344 15.80923783  3385
STARLINK-36264          
1 68307U 26057P   26101.25002315 -.00021909  00000+0 -14634-3 0  9995
2 68307  97.2848 225.2895 0001399  67.6141 118.4660 15.75197293  4609
STARLINK-37138          
1 68308U 26057Q   26100.32680359  .00342648  00000+0  17284-2 0  9990
2 68308  97.2849 224.3200 0002237  47.1169 313.0287 15.80712344  3261
STARLINK-37149          
1 68309U 26057R   26101.25002315  .00038773  00000+0  25987-3 0  9995
2 68309  97.2846 225.2833 0001000  91.7773  84.3095 15.75170010  4396
STARLINK-37148          
1 68310U 26057S   26101.27428906 -.00550379  00000+0 -32578-2 0  9993
2 68310  97.2852 225.3273 0001221 123.1165 237.0220 15.79426749  3410
STARLINK-37140          
1 68311U 26057T   26101.27473871  .00335597  00000+0  16741-2 0  9990
2 68311  97.2847 225.3277 0001148  81.9854 278.1544 15.80974883  3417
STARLINK-36854          
1 68312U 26057U   26101.27323795  .00252021  00000+0  12717-2 0  9999
2 68312  97.2851 225.3294 0001116 106.4850 253.6541 15.80938121  3416
STARLINK-36815          
1 68313U 26057V   26101.20918663  .00298535  00000+0  14990-2 0  9992
2 68313  97.2852 225.2641 0001162  42.1793 317.9564 15.80926965  3407
STARLINK-37155          
1 68314U 26057W   26100.89118909  .00548947  00000+0  26620-2 0  9990
2 68314  97.2851 224.9304 0003011  28.2031 331.9400 15.81048250  3356
STARLINK-37150          
1 68315U 26057X   26101.25002315  .00165803  00000+0  10956-2 0  9996
2 68315  97.2856 225.3014 0001062  31.8477 186.1648 15.75093735  4506
STARLINK-37154          
1 68316U 26057Y   26101.26948011  .00265792  00000+0  13385-2 0  9997
2 68316  97.2851 225.3334 0001378  79.8270 280.3154 15.80946486  3414
STARLINK-37139          
1 68317U 26057Z   26101.20693396  .00258671  00000+0  13057-2 0  9999
2 68317  97.2853 225.2652 0001666 101.1078 259.0378 15.80914221  3406
STARLINK-37113          
1 68318U 26057AA  26101.25002315 -.01882846  00000+0 -12738-1 0  9994
2 68318  97.2856 225.3143 0001561  74.3822 176.1509 15.78056005  4509
PROGRESS-MS 33          
1 68319U 26058A   26101.16675691  .00005918  00000+0  11600-3 0  9992
2 68319  51.6326 271.7779 0006464 298.5374  61.4964 15.48869271  2249
STARLINK-36987          
1 68321U 26059A   26101.31416249  .00431575  00000+0  20715-2 0  9993
2 68321  53.1577 199.3910 0000586 143.6407 216.4655 15.80988161  3139
