[{"OBJECT_NAME":"STARLINK-36277","OBJECT_ID":"2026-057M","EPOCH":"2026-04-11T07:02:03.041664","MEAN_MOTION":15.75304175,"ECCENTRICITY":0.00032837,"INCLINATION":97.2843,"RA_OF_ASC_NODE":225.3024,"ARG_OF_PERICENTER":58.2856,"MEAN_ANOMALY":301.8729,"EPHEMERIS_TYPE":0,"CLASSIFICATION_TYPE":"U","NORAD_CAT_ID":68305,"ELEMENT_SET_NO":999,"REV_AT_EPOCH":341,"BSTAR":0.0014196618,"MEAN_MOTION_DOT":0.00218226,"MEAN_MOTION_DDOT":0},{"OBJECT_NAME":"STARLINK-36307","OBJECT_ID":"2026-057N","EPOCH":"2026-04-11T02:07:35.477184","MEAN_MOTION":15.80923783,"ECCENTRICITY":0.00017588,"INCLINATION":97.2848,"RA_OF_ASC_NODE":225.1231,"ARG_OF_PERICENTER":71.4115,"MEAN_ANOMALY":288.7344,"EPHEMERIS_TYPE":0,"CLASSIFICATION_TYPE":"U","NORAD_CAT_ID":68306,"ELEMENT_SET_NO":999,"REV_AT_EPOCH":338,"BSTAR":0.0018617254,"MEAN_MOTION_DOT":0.00374024,"MEAN_MOTION_DDOT":0},{"OBJECT_NAME":"STARLINK-36264","OBJECT_ID":"2026-057P","EPOCH":"2026-04-11T06:00:02.000160","MEAN_MOTION":15.75197293,"ECCENTRICITY":0.00013996,"INCLINATION":97.2848,"RA_OF_ASC_NODE":225.2895,"ARG_OF_PERICENTER":67.6141,"MEAN_ANOMALY":118.466,"EPHEMERIS_TYPE":0,"CLASSIFICATION_TYPE":"U","NORAD_CAT_ID":68307,"ELEMENT_SET_NO":999,"REV_AT_EPOCH":460,"BSTAR":-0.00014634242,"MEAN_MOTION_DOT":-0.00021909,"MEAN_MOTION_DDOT":0},{"OBJECT_NAME":"STARLINK-37138","OBJECT_ID":"2026-057Q","EPOCH":"2026-04-10T07:50:35.830176","MEAN_MOTION":15.80712344,"ECCENTRICITY":0.00022376,"INCLINATION":97.2849,"RA_OF_ASC_NODE":224.32,"ARG_OF_PERICENTER":47.1169,"MEAN_ANOMALY":313.0287,"EPHEMERIS_TYPE":0,"CLASSIFICATION_TYPE":"U","NORAD_CAT_ID":68308,"ELEMENT_SET_NO":999,"REV_AT_EPOCH":326,"BSTAR":0.0017283764,"MEAN_MOTION_DOT":0.00342648,"MEAN_MOTION_DDOT":0},{"OBJECT_NAME":"STARLINK-37149","OBJECT_ID":"2026-057R","EPOCH":"2026-04-11T06:00:02.000160","MEAN_MOTION":15.7517001,"ECCENTRICITY":0.00010007,"INCLINATION":97.2846,"RA_OF_ASC_NODE":225.2833,"ARG_OF_PERICENTER":91.7773,"MEAN_ANOMALY":84.3095,"EPHEMERIS_TYPE":0,"CLASSIFICATION_TYPE":"U","NORAD_CAT_ID":68309,"ELEMENT_SET_NO":999,"REV_AT_EPOCH":439,"BSTAR":0.00025986891,"MEAN_MOTION_DOT":0.00038773,"MEAN_MOTION_DDOT":0},{"OBJECT_NAME":"STARLINK-37148","OBJECT_ID":"2026-057S","EPOCH":"2026-04-11T06:34:58.574784","MEAN_MOTION":15.79426749,"ECCENTRICITY":0.00012216,"INCLINATION":97.2852,"RA_OF_ASC_NODE":225.3273,"ARG_OF_PERICENTER":123.1165,"MEAN_ANOMALY":237.022,"EPHEMERIS_TYPE":0,"CLASSIFICATION_TYPE":"U","NORAD_CAT_ID":68310,"ELEMENT_SET_NO":999,"REV_AT_EPOCH":341,"BSTAR":-0.0032577768,"MEAN_MOTION_DOT":-0.00550379,"MEAN_MOTION_DDOT":0},{"OBJECT_NAME":"STARLINK-37140","OBJECT_ID":"2026-057T","EPOCH":"2026-04-11T06:35:37.424544","MEAN_MOTION":15.80974883,"ECCENTRICITY":0.00011483,"INCLINATION":97.2847,"RA_OF_ASC_NODE":225.3277,"ARG_OF_PERICENTER":81.9854,"MEAN_ANOMALY":278.1544,"EPHEMERIS_TYPE":0,"CLASSIFICATION_TYPE":"U","NORAD_CAT_ID":68311,"ELEMENT_SET_NO":999,"REV_AT_EPOCH":341,"BSTAR":0.0016740638,"MEAN_MOTION_DOT":0.00335597,"MEAN_MOTION_DDOT":0},{"OBJECT_NAME":"STARLINK-36854","OBJECT_ID":"2026-057U","EPOCH":"2026-04-11T06:33:27.758880","MEAN_MOTION":15.80938121,"ECCENTRICITY":0.00011168,"INCLINATION":97.2851,"RA_OF_ASC_NODE":225.3294,"ARG_OF_PERICENTER":106.485,"MEAN_ANOMALY":253.6541,"EPHEMERIS_TYPE":0,"CLASSIFICATION_TYPE":"U","NORAD_CAT_ID":68312,"ELEMENT_SET_NO":999,"REV_AT_EPOCH":341,"BSTAR":0.0012717087,"MEAN_MOTION_DOT":0.00252021,"MEAN_MOTION_DDOT":0},{"OBJECT_NAME":"STARLINK-36815","OBJECT_ID":"2026-057V","EPOCH":"2026-04-11T05:01:13.724832","MEAN_MOTION":15.80926965,"ECCENTRICITY":0.00011626,"INCLINATION":97.2852,"RA_OF_ASC_NODE":225.2641,"ARG_OF_PERICENTER":42.1793,"MEAN_ANOMALY":317.9564,"EPHEMERIS_TYPE":0,"CLASSIFICATION_TYPE":"U","NORAD_CAT_ID":68313,"ELEMENT_SET_NO":999,"REV_AT_EPOCH":340,"BSTAR":0.0014989546,"MEAN_MOTION_DOT":0.00298535,"MEAN_MOTION_DDOT":0},{"OBJECT_NAME":"STARLINK-37155","OBJECT_ID":"2026-057W","EPOCH":"2026-04-10T21:23:18.737376","MEAN_MOTION":15.8104825,"ECCENTRICITY":0.0003011,"INCLINATION":97.2851,"RA_OF_ASC_NODE":224.9304,"ARG_OF_PERICENTER":28.2031,"MEAN_ANOMALY":331.94,"EPHEMERIS_TYPE":0,"CLASSIFICATION_TYPE":"U","NORAD_CAT_ID":68314,"ELEMENT_SET_NO":999,"REV_AT_EPOCH":335,"BSTAR":0.002662,"MEAN_MOTION_DOT":0.00548947,"MEAN_MOTION_DDOT":0},{"OBJECT_NAME":"STARLINK-37150","OBJECT_ID":"2026-057X","EPOCH":"2026-04-11T06:00:02.000160","MEAN_MOTION":15.75093735,"ECCENTRICITY":0.00010627,"INCLINATION":97.2856,"RA_OF_ASC_NODE":225.3014,"ARG_OF_PERICENTER":31.8477,"MEAN_ANOMALY":186.1648,"EPHEMERIS_TYPE":0,"CLASSIFICATION_TYPE":"U","NORAD_CAT_ID":68315,"ELEMENT_SET_NO":999,"REV_AT_EPOCH":450,"BSTAR":0.0010955897,"MEAN_MOTION_DOT":0.00165803,"MEAN_MOTION_DDOT":0},{"OBJECT_NAME":"STARLINK-37154","OBJECT_ID":"2026-057Y","EPOCH":"2026-04-11T06:28:03.081504","MEAN_MOTION":15.80946486,"ECCENTRICITY":0.00013787,"INCLINATION":97.2851,"RA_OF_ASC_NODE":225.3334,"ARG_OF_PERICENTER":79.827,"MEAN_ANOMALY":280.3154,"EPHEMERIS_TYPE":0,"CLASSIFICATION_TYPE":"U","NORAD_CAT_ID":68316,"ELEMENT_SET_NO":999,"REV_AT_EPOCH":341,"BSTAR":0.0013385184,"MEAN_MOTION_DOT":0.00265792,"MEAN_MOTION_DDOT":0},{"OBJECT_NAME":"STARLINK-37139","OBJECT_ID":"2026-057Z","EPOCH":"2026-04-11T04:57:59.094144","MEAN_MOTION":15.80914221,"ECCENTRICITY":0.00016665,"INCLINATION":97.2853,"RA_OF_ASC_NODE":225.2652,"ARG_OF_PERICENTER":101.1078,"MEAN_ANOMALY":259.0378,"EPHEMERIS_TYPE":0,"CLASSIFICATION_TYPE":"U","NORAD_CAT_ID":68317,"ELEMENT_SET_NO":999,"REV_AT_EPOCH":340,"BSTAR":0.0013056622,"MEAN_MOTION_DOT":0.00258671,"MEAN_MOTION_DDOT":0},{"OBJECT_NAME":"STARLINK-37113","OBJECT_ID":"2026-057AA","EPOCH":"2026-04-11T06:00:02.000160","MEAN_MOTION":15.78056005,"ECCENTRICITY":0.00015614,"INCLINATION":97.2856,"RA_OF_ASC_NODE":225.3143,"ARG_OF_PERICENTER":74.3822,"MEAN_ANOMALY":176.1509,"EPHEMERIS_TYPE":0,"CLASSIFICATION_TYPE":"U","NORAD_CAT_ID":68318,"ELEMENT_SET_NO":999,"REV_AT_EPOCH":450,"BSTAR":-0.012738217,"MEAN_MOTION_DOT":-0.01882846,"MEAN_MOTION_DDOT":0},{"OBJECT_NAME":"PROGRESS-MS 33","OBJECT_ID":"2026-058A","EPOCH":"2026-04-11T04:00:07.797024","MEAN_MOTION":15.48869271,"ECCENTRICITY":0.00064647,"INCLINATION":51.6326,"RA_OF_ASC_NODE":271.7779,"ARG_OF_PERICENTER":298.5374,"MEAN_ANOMALY":61.4964,"EPHEMERIS_TYPE":0,"CLASSIFICATION_TYPE":"U","NORAD_CAT_ID":68319,"ELEMENT_SET_NO":999,"REV_AT_EPOCH":224,"BSTAR":0.00011599994,"MEAN_MOTION_DOT":5.918e-5,"MEAN_MOTION_DDOT":0},{"OBJECT_NAME":"STARLINK-36987","OBJECT_ID":"2026-059A","EPOCH":"2026-04-11T07:32:23.639136","MEAN_MOTION":15.80988161,"ECCENTRICITY":5.869e-5,"INCLINATION":53.1577,"RA_OF_ASC_NODE":199.391,"ARG_OF_PERICENTER":143.6407,"MEAN_ANOMALY":216.4655,"EPHEMERIS_TYPE":0,"CLASSIFICATION_TYPE":"U","NORAD_CAT_ID":68321,"ELEMENT_SET_NO":999,"REV_AT_EPOCH":313,"BSTAR":0.0020715215,"MEAN_MOTION_DOT":0.00431575,"MEAN_MOTION_DDOT":0}]
